SAUDISAT 1C             
1 27607U 02058C   22352.57828031  .00001535  00000+0  22869-3 0  9998
2 27607  64.5548  98.3163 0080686 259.5572  99.6431 14.76492800 75554
SAUDISAT 2              
1 28371U 04025F   22352.43114303  .00000249  00000+0  69089-4 0  9995
2 28371  98.4048 309.7907 0024401 259.2387 100.6040 14.54674322980037
SAUDISAT 3              
1 31118U 07012B   22352.44096421  .00000363  00000+0  69398-4 0  9998
2 31118  97.9928 295.2457 0014511 334.9968  25.0534 14.69439800840126
PISAT                   
1 41784U 16059B   22352.33357048  .00000868  00000+0  17278-3 0  9991
2 41784  97.8938  28.3273 0030527 309.5406  50.3100 14.64152711332592
FLYING LAPTOP           
1 42831U 17042G   22352.36201024  .00001228  00000+0  12533-3 0  9993
2 42831  97.3999 195.9566 0015044 109.6172 250.6662 14.92210962295512
SALSAT                  
1 46495U 20068K   22352.40695214  .00003738  00000+0  26359-3 0  9997
2 46495  97.7490 294.0484 0016821  18.8195 341.3649 15.05496311121859
